NORAD_CAT_ID,OBJECT_NAME,OBJECT_TYPE,EPOCH,MEAN_MOTION,ECCENTRICITY,INCLINATION,RA_OF_ASC_NODE,ARG_OF_PERICENTER,MEAN_ANOMALY,BSTAR,MEAN_MOTION_DOT,MEAN_MOTION_DDOT,TLE_LINE0,TLE_LINE1,TLE_LINE2,SEMIMAJOR_AXIS,PERIOD,APOGEE,PERIGEE,DECAYED
52340.0,STARLINK-3818,PAYLOAD,2022-11-18 02:22:59,15.08809208,0.0002838,53.217,220.1981,37.7255,322.3936,0.00037355,5.657e-05,0.0,0 STARLINK-3818,1 52340U 22045K   22322.09930065  .00005657  00000-0  37355-3 0  9999,2 52340  53.2170 220.1981 0002838  37.7255 322.3936 15.08809208 33462,6917.975,95.44,541.803,537.876,0.0
52340.0,STARLINK-3818,PAYLOAD,2022-11-18 10:19:54,15.08844915,0.0002858,53.2169,218.7114,34.8403,325.2776,0.00016526,2.343e-05,0.0,0 STARLINK-3818,1 52340U 22045K   22322.43048636  .00002343  00000-0  16526-3 0  9997,2 52340  53.2169 218.7114 0002858  34.8403 325.2776 15.08844915 33510,6917.865,95.437,541.707,537.753,0.0
52340.0,STARLINK-3818,PAYLOAD,2022-11-19 02:13:46,15.088424,0.0003021,53.2175,215.7363,35.7679,324.3515,-4.7986e-05,-1.052e-05,0.0,0 STARLINK-3818,1 52340U 22045K   22323.09289427 -.00001052  00000-0 -47986-4 0  9998,2 52340  53.2175 215.7363 0003021  35.7679 324.3515 15.08842400 33617,6917.873000000001,95.437,541.828,537.648,0.0
52340.0,STARLINK-3818,PAYLOAD,2022-11-19 10:10:41,15.08837881,0.0002878,53.2171,214.2503,37.0455,323.0735,7.1237e-06,-1.75e-06,0.0,0 STARLINK-3818,1 52340U 22045K   22323.42409532 -.00000175  00000-0  71237-5 0  9997,2 52340  53.2171 214.2503 0002878  37.0455 323.0735 15.08837881 33661,6917.887,95.438,541.743,537.761,0.0
52340.0,STARLINK-3818,PAYLOAD,2022-11-20 10:01:28,15.08844805,0.0002777,53.2168,209.79,38.59,321.529,-1.5631e-05,-5.37e-06,0.0,0 STARLINK-3818,1 52340U 22045K   22324.41768989 -.00000537  00000-0 -15631-4 0  9999,2 52340  53.2168 209.7900 0002777  38.5900 321.5290 15.08844805 33816,6917.866,95.437,541.6519999999998,537.81,0.0
52340.0,STARLINK-3818,PAYLOAD,2022-11-20 21:09:09,15.08900507,0.0003466,53.2168,207.709,38.4818,321.6421,-0.00097338,-0.00015774,0.0,0 STARLINK-3818,1 52340U 22045K   22324.88136531 -.00015774  00000-0 -97338-3 0  9994,2 52340  53.2168 207.7090 0003466  38.4818 321.6421 15.08900507 33883,6917.695,95.434,541.9580000000002,537.163,0.0
52340.0,STARLINK-3818,PAYLOAD,2022-11-21 05:06:07,15.08833379,0.0002763,53.2167,206.2226,37.5772,322.5412,-4.2014e-05,-9.57e-06,0.0,0 STARLINK-3818,1 52340U 22045K   22325.21258384 -.00000957  00000-0 -42014-4 0  9992,2 52340  53.2167 206.2226 0002763  37.5772 322.5412 15.08833379 33933,6917.901,95.438,541.677,537.854,0.0
52340.0,STARLINK-3818,PAYLOAD,2022-11-21 06:41:30,15.08834072,0.000276,53.2167,205.9253,37.8114,322.3072,-3.6211e-05,-8.65e-06,0.0,0 STARLINK-3818,1 52340U 22045K   22325.27882305 -.00000865  00000-0 -36211-4 0  9994,2 52340  53.2167 205.9253 0002760  37.8114 322.3072 15.08834072 33941,6917.899,95.438,541.673,537.854,0.0
52340.0,STARLINK-3818,PAYLOAD,2022-11-21 19:24:35,15.08838065,0.0002826,53.2159,203.5467,37.7663,322.3527,1.7325e-05,-1.3e-07,0.0,0 STARLINK-3818,1 52340U 22045K   22325.80874065 -.00000013  00000-0  17325-4 0  9996,2 52340  53.2159 203.5467 0002826  37.7663 322.3527 15.08838065 34025,6917.886,95.438,541.706,537.7959999999998,0.0
52340.0,STARLINK-3818,PAYLOAD,2022-11-22 01:46:07,15.08838417,0.0002901999999999,53.2161,202.3567,40.7355,319.3854,8.7101e-05,1.098e-05,0.0,0 STARLINK-3818,1 52340U 22045K   22326.07369823  .00001098  00000-0  87101-4 0  9999,2 52340  53.2161 202.3567 0002902  40.7355 319.3854 15.08838417 34067,6917.885,95.438,541.758,537.743,0.0
52340.0,STARLINK-3818,PAYLOAD,2022-11-22 20:50:45,15.08823368,0.0002667,53.2168,198.7877,40.6944,319.4247,0.00020459,2.968e-05,0.0,0 STARLINK-3818,1 52340U 22045K   22326.86858272  .00002968  00000-0  20459-3 0  9996,2 52340  53.2168 198.7877 0002667  40.6944 319.4247 15.08823368 34186,6917.931,95.439,541.641,537.951,0.0
52340.0,STARLINK-3818,PAYLOAD,2022-11-23 00:01:32,15.08821771,0.0002671,53.2167,198.1931,41.0549,319.0644,0.00018147,2.6e-05,0.0,0 STARLINK-3818,1 52340U 22045K   22327.00106575  .00002600  00000-0  18147-3 0  9999,2 52340  53.2167 198.1931 0002671  41.0549 319.0644 15.08821771 34207,6917.936,95.439,541.649,537.953,0.0
52340.0,STARLINK-3818,PAYLOAD,2022-11-23 07:58:27,15.0882587,0.0002671,53.2166,196.7062,41.7913,318.3283,0.00018943,2.727e-05,0.0,0 STARLINK-3818,1 52340U 22045K   22327.33226565  .00002727  00000-0  18943-3 0  9991,2 52340  53.2166 196.7062 0002671  41.7913 318.3283 15.08825870 34257,6917.924,95.438,541.636,537.941,0.0
52340.0,STARLINK-3818,PAYLOAD,2022-11-23 19:06:09,15.08845567,0.0002541,53.2168,194.6235,38.5793,321.538,4.8575e-06,-2.11e-06,0.0,0 STARLINK-3818,1 52340U 22045K   22327.79593898 -.00000211  00000-0  48575-5 0  9990,2 52340  53.2168 194.6235 0002541  38.5793 321.5380 15.08845567 34321,6917.863,95.437,541.486,537.971,0.0
52340.0,STARLINK-3818,PAYLOAD,2022-11-24 07:49:13,15.08851086,0.0002701,53.2164,192.2456,39.2739,320.8449,5.229e-05,5.44e-06,0.0,0 STARLINK-3818,1 52340U 22045K   22328.32585133  .00000544  00000-0  52290-4 0  9999,2 52340  53.2164 192.2456 0002701  39.2739 320.8449 15.08851086 34402,6917.847,95.437,541.58,537.8430000000002,0.0
52340.0,STARLINK-3818,PAYLOAD,2022-11-24 22:07:42,15.08833679,0.0002618,53.2177,189.5716,46.7542,313.3669,-6.0175e-06,-3.84e-06,0.0,0 STARLINK-3818,1 52340U 22045K   22328.92202327 -.00000384  00000-0 -60175-5 0  9992,2 52340  53.2177 189.5716 0002618  46.7542 313.3669 15.08833679 34494,6917.9,95.438,541.576,537.9540000000002,0.0
52340.0,STARLINK-3818,PAYLOAD,2022-11-25 07:40:01,15.08835653,0.0002664,53.2183,187.7881,49.0463,311.0759,2.9125e-05,1.75e-06,0.0,0 STARLINK-3818,1 52340U 22045K   22329.31946140  .00000175  00000-0  29125-4 0  9999,2 52340  53.2183 187.7881 0002664  49.0463 311.0759 15.08835653 34559,6917.894,95.438,541.602,537.9159999999998,0.0
52340.0,STARLINK-3818,PAYLOAD,2022-11-25 15:36:56,15.08846481,0.0002729,53.2177,186.2998,45.9085,314.2131,1.4472e-05,-5.8e-07,0.0,0 STARLINK-3818,1 52340U 22045K   22329.65065441 -.00000058  00000-0  14472-4 0  9992,2 52340  53.2177 186.2998 0002729  45.9085 314.2131 15.08846481 34608,6917.861,95.437,541.613,537.8380000000002,0.0
52340.0,STARLINK-3818,PAYLOAD,2022-11-25 18:47:42,15.08847035,0.000273,53.2178,185.7052,46.279,313.8428,1.8427e-05,5e-08,0.0,0 STARLINK-3818,1 52340U 22045K   22329.78313336  .00000005  00000-0  18427-4 0  9990,2 52340  53.2178 185.7052 0002730  46.2790 313.8428 15.08847035 34625,6917.859,95.437,541.612,537.835,0.0
52340.0,STARLINK-3818,PAYLOAD,2022-11-26 13:52:20,15.08833946,0.0002797,53.2165,182.1358,47.1972,312.9255,1.2440999999999997e-05,-9.1e-07,0.0,0 STARLINK-3818,1 52340U 22045K   22330.57801968 -.00000091  00000-0  12441-4 0  9998,2 52340  53.2165 182.1358 0002797  47.1972 312.9255 15.08833946 34743,6917.899,95.438,541.6990000000002,537.8290000000002,0.0
52340.0,STARLINK-3818,PAYLOAD,2022-11-27 07:21:35,15.08840027,0.000276,53.2163,178.8651,46.6968,313.4254,2.9317e-05,1.78e-06,0.0,0 STARLINK-3818,1 52340U 22045K   22331.30665620  .00000178  00000-0  29317-4 0  9998,2 52340  53.2163 178.8651 0002760  46.6968 313.4254 15.08840027 34853,6917.88,95.438,541.655,537.836,0.0
52340.0,STARLINK-3818,PAYLOAD,2022-11-27 20:04:40,15.08833921,0.000291,53.2168,176.4865,45.5683,314.5547,-5.9038e-05,-1.228e-05,0.0,0 STARLINK-3818,1 52340U 22045K   22331.83658414 -.00001228  00000-0 -59038-4 0  9991,2 52340  53.2168 176.4865 0002910  45.5683 314.5547 15.08833921 34939,6917.899,95.438,541.7769999999998,537.751,0.0
52340.0,STARLINK-3818,PAYLOAD,2022-11-28 13:33:55,15.08830995,0.0002723999999999,53.2174,173.2147,45.7335,314.388,-4.6351e-05,-1.026e-05,0.0,0 STARLINK-3818,1 52340U 22045K   22332.56522953 -.00001026  00000-0 -46351-4 0  9990,2 52340  53.2174 173.2147 0002724  45.7335 314.3880 15.08830995 35042,6917.908,95.438,541.6569999999998,537.888,0.0
52340.0,STARLINK-3818,PAYLOAD,2022-11-28 19:55:28,15.08833871,0.0002741,53.217,172.0255,45.8639,314.2579,-1.3699e-05,-5.07e-06,0.0,0 STARLINK-3818,1 52340U 22045K   22332.83018746 -.00000507  00000-0 -13699-4 0  9992,2 52340  53.2170 172.0255 0002741  45.8639 314.2579 15.08833871 35086,6917.899,95.438,541.66,537.868,0.0
52340.0,STARLINK-3818,PAYLOAD,2022-11-29 19:46:15,15.08834473,0.0002802,53.2165,167.5657,45.1788,314.9431,6.6738e-05,7.74e-06,0.0,0 STARLINK-3818,1 52340U 22045K   22333.82378799  .00000774  00000-0  66738-4 0  9995,2 52340  53.2165 167.5657 0002802  45.1788 314.9431 15.08834473 35231,6917.897,95.438,541.701,537.8240000000002,0.0
52340.0,STARLINK-3818,PAYLOAD,2022-11-30 13:15:29,15.08837397,0.000284,53.2165,164.2945,47.3967,312.7265,6.6096e-05,7.63e-06,0.0,0 STARLINK-3818,1 52340U 22045K   22334.55242823  .00000763  00000-0  66096-4 0  9999,2 52340  53.2165 164.2945 0002840  47.3967 312.7265 15.08837397 35341,6917.888000000001,95.438,541.7180000000002,537.789,0.0
52340.0,STARLINK-3818,PAYLOAD,2022-12-01 05:09:20,15.08843141,0.0002872,53.2163,161.3205,48.6492,311.4747,8.287700000000001e-05,1.031e-05,0.0,0 STARLINK-3818,1 52340U 22045K   22335.21482355  .00001031  00000-0  82877-4 0  9993,2 52340  53.2163 161.3205 0002872  48.6492 311.4747 15.08843141 35444,6917.871,95.437,541.7230000000002,537.749,0.0
52340.0,STARLINK-3818,PAYLOAD,2022-12-01 13:06:16,15.08842375,0.0002894,53.2165,159.8337,50.4981,309.6267,2.6989e-05,1.41e-06,0.0,0 STARLINK-3818,1 52340U 22045K   22335.54602552  .00000141  00000-0  26989-4 0  9995,2 52340  53.2165 159.8337 0002894  50.4981 309.6267 15.08842375 35491,6917.873000000001,95.437,541.74,537.736,0.0
52340.0,STARLINK-3818,PAYLOAD,2022-12-01 19:27:49,15.08842599,0.000291,53.2165,158.6442,50.9788,309.1463,2.6347e-05,1.31e-06,0.0,0 STARLINK-3818,1 52340U 22045K   22335.81098479  .00000131  00000-0  26347-4 0  9999,2 52340  53.2165 158.6442 0002910  50.9788 309.1463 15.08842599 35530,6917.871999999999,95.437,541.751,537.724,0.0
